NORAD_CAT_ID,OBJECT_NAME,OBJECT_TYPE,EPOCH,MEAN_MOTION,ECCENTRICITY,INCLINATION,RA_OF_ASC_NODE,ARG_OF_PERICENTER,MEAN_ANOMALY,BSTAR,MEAN_MOTION_DOT,MEAN_MOTION_DDOT,TLE_LINE0,TLE_LINE1,TLE_LINE2,SEMIMAJOR_AXIS,PERIOD,APOGEE,PERIGEE,DECAYED
51879.0,STARLINK-3572,PAYLOAD,2022-04-14 14:00:01,15.73252935,0.000129,53.2133,296.4075,92.3194,244.9297,-0.000748,-0.00104538,0.0,0 STARLINK-3572,1 51879U 22022AD  22104.58334491 -.00104538  00000-0 -74800-3 0  9999,2 51879  53.2133 296.4075 0001290  92.3194 244.9297 15.73252935  3701,6727.744000000002,91.53,350.477,348.741,0.0
51879.0,STARLINK-3572,PAYLOAD,2022-04-14 22:00:00,15.73147334,0.0001284,53.2128,294.7598,80.5675,345.6524,0.000363,0.00050517,0.0,0 STARLINK-3572,1 51879U 22022AD  22104.91667824  .00050517  00000-0  36300-3 0  9993,2 51879  53.2128 294.7598 0001284  80.5675 345.6524 15.73147334  3700,6728.045,91.536,350.774,349.046,0.0
51879.0,STARLINK-3572,PAYLOAD,2022-04-15 04:00:00,15.73200217,0.0001126,53.2121,293.5213,82.1683,320.7195,0.00036993,0.00051617,0.0,0 STARLINK-3572,1 51879U 22022AD  22105.16667824  .00051617  00000-0  36993-3 0  9991,2 51879  53.2121 293.5213 0001126  82.1683 320.7195 15.73200217  7911,6727.895,91.533,350.517,349.00199999999984,0.0
51879.0,STARLINK-3572,PAYLOAD,2022-04-15 12:58:01,15.73217139,9.6e-05,53.2124,291.6698,68.2377,291.8745,1.3145e-07,-6.01e-06,0.0,0 STARLINK-3572,1 51879U 22022AD  22105.54029410 -.00000601  00000-0  13145-6 0  9991,2 51879  53.2124 291.6698 0000960  68.2377 291.8745 15.73217139  7987,6727.846,91.532,350.357,349.065,0.0
51879.0,STARLINK-3572,PAYLOAD,2022-04-15 22:00:00,15.73277235,0.0001046,53.2127,289.8104,75.2334,257.8642,-0.00036104,-0.00051148,0.0,0 STARLINK-3572,1 51879U 22022AD  22105.91667824 -.00051148  00000-0 -36104-3 0  9999,2 51879  53.2127 289.8104 0001046  75.2334 257.8642 15.73277235  3682,6727.675,91.529,350.244,348.836,0.0
51879.0,STARLINK-3572,PAYLOAD,2022-04-16 04:00:00,15.73291528,0.0001072,53.2126,288.5716,78.7483,231.1017,-0.0013933,-0.001925,0.0,0 STARLINK-3572,1 51879U 22022AD  22106.16667824 -.00192500  00000-0 -13933-2 0  9999,2 51879  53.2126 288.5716 0001072  78.7483 231.1017 15.73291528  8078,6727.634,91.528,350.22,348.778,0.0
51879.0,STARLINK-3572,PAYLOAD,2022-04-16 14:00:01,15.73108998,0.0001217,53.2129,286.5089,84.7538,66.2495,-9.3594e-05,-0.00013682,0.0,0 STARLINK-3572,1 51879U 22022AD  22106.58334491 -.00013682  00000-0 -93594-4 0  9992,2 51879  53.2129 286.5089 0001217  84.7538  66.2495 15.73108998  3701,6728.155,91.538,350.838,349.201,0.0
51879.0,STARLINK-3572,PAYLOAD,2022-04-16 22:00:01,15.7307897,0.0001202,53.2125,284.8612,69.6492,170.2359,0.00073973,0.00103948,0.0,0 STARLINK-3572,1 51879U 22022AD  22106.91668981  .00103948  00000-0  73973-3 0  9994,2 51879  53.2125 284.8612 0001202  69.6492 170.2359 15.73078970  8194,6728.24,91.54,350.914,349.297,0.0
51879.0,STARLINK-3572,PAYLOAD,2022-04-17 14:00:01,15.73268353,0.0001266,53.2126,281.5604,82.0833,335.4152,-6.6152e-05,-9.921e-05,0.0,0 STARLINK-3572,1 51879U 22022AD  22107.58334491 -.00009921  00000-0 -66152-4 0  9994,2 51879  53.2126 281.5604 0001266  82.0833 335.4152 15.73268353  3702,6727.7,91.529,350.417,348.714,0.0
51879.0,STARLINK-3572,PAYLOAD,2022-04-17 22:00:00,15.732456400000002,0.0001208,53.2128,279.9123,67.8908,78.6378,4.1872e-05,5.271e-05,0.0,0 STARLINK-3572,1 51879U 22022AD  22107.91667824  .00005271  00000-0  41872-4 0  9994,2 51879  53.2128 279.9123 0001208  67.8908  78.6378 15.73245640  3699,6727.765,91.531,350.4430000000001,348.81699999999995,0.0
51879.0,STARLINK-3572,PAYLOAD,2022-04-18 06:00:00,15.73211815,0.000115,53.2131,278.2603,73.69,161.8436,0.00028324,0.00039337,0.0,0 STARLINK-3572,1 51879U 22022AD  22108.25001157  .00039337  00000-0  28324-3 0  9999,2 51879  53.2131 278.2603 0001150  73.6900 161.8436 15.73211815  8402,6727.861,91.532,350.5,348.95300000000015,0.0
51879.0,STARLINK-3572,PAYLOAD,2022-04-18 14:00:01,15.73253996,0.0001188,53.2131,276.611,73.1061,251.3757,-0.00063387,-0.00088849,0.0,0 STARLINK-3572,1 51879U 22022AD  22108.58334491 -.00088849  00000-0 -63387-3 0  9997,2 51879  53.2131 276.6110 0001188  73.1061 251.3757 15.73253996  8453,6727.741,91.53,350.405,348.807,0.0
51879.0,STARLINK-3572,PAYLOAD,2022-04-18 20:00:01,15.73190587,0.000132,53.2129,275.3752,62.6819,238.5366,1.9733e-05,2.149e-05,0.0,0 STARLINK-3572,1 51879U 22022AD  22108.83334491  .00002149  00000-0  19733-4 0  9999,2 51879  53.2129 275.3752 0001320  62.6819 238.5366 15.73190587  8493,6727.922,91.534,350.675,348.899,0.0
51879.0,STARLINK-3572,PAYLOAD,2022-04-18 22:00:00,15.73154877,0.0001279,53.2126,274.9628,61.1649,352.2947,0.00058836,0.00082608,0.0,0 STARLINK-3572,1 51879U 22022AD  22108.91667824  .00082608  00000-0  58836-3 0  9991,2 51879  53.2126 274.9628 0001279  61.1649 352.2947 15.73154877  3705,6728.024,91.536,350.749,349.028,0.0
51879.0,STARLINK-3572,PAYLOAD,2022-04-19 14:00:01,15.73230823,0.000106,53.2129,271.6622,66.3008,164.9889,-0.00026244,-0.00037336,0.0,0 STARLINK-3572,1 51879U 22022AD  22109.58334491 -.00037336  00000-0 -26244-3 0  9994,2 51879  53.2129 271.6622 0001060  66.3008 164.9889 15.73230823  3709,6727.807,91.531,350.385,348.959,0.0
51879.0,STARLINK-3572,PAYLOAD,2022-04-19 22:00:00,15.73170421,0.0001315999999999,53.2129,270.0141,55.7871,264.4505,0.00039723,0.00055427,0.0,0 STARLINK-3572,1 51879U 22022AD  22109.91667824  .00055427  00000-0  39723-3 0  9995,2 51879  53.2129 270.0141 0001316  55.7871 264.4505 15.73170421  8660,6727.98,91.535,350.73,348.959,0.0
51879.0,STARLINK-3572,PAYLOAD,2022-04-20 06:00:00,15.73148963,0.0001307,53.2132,268.3623,67.148,342.0177,0.00047701,0.00066712,0.0,0 STARLINK-3572,1 51879U 22022AD  22110.25001157  .00066712  00000-0  47701-3 0  9999,2 51879  53.2132 268.3623 0001307  67.1480 342.0177 15.73148963  8712,6728.041,91.536,350.785,349.026,0.0
51879.0,STARLINK-3572,PAYLOAD,2022-04-20 14:00:01,15.73235015,0.0001415,53.2132,266.7136,62.7684,75.2833,-0.00048506,-0.00068248,0.0,0 STARLINK-3572,1 51879U 22022AD  22110.58334491 -.00068248  00000-0 -48506-3 0  9997,2 51879  53.2132 266.7136 0001415  62.7684  75.2833 15.73235015  3691,6727.795,91.531,350.612,348.708,0.0
51879.0,STARLINK-3572,PAYLOAD,2022-04-20 22:00:00,15.73171156,0.0001408,53.2125,265.0652,50.7314,176.2767,0.00071597,0.00100952,0.0,0 STARLINK-3572,1 51879U 22022AD  22110.91667824  .00100952  00000-0  71597-3 0  9996,2 51879  53.2125 265.0652 0001408  50.7314 176.2767 15.73171156  8820,6727.977,91.535,350.79,348.895,0.0
51879.0,STARLINK-3572,PAYLOAD,2022-04-21 04:00:00,15.73320589,0.0001459,53.2151,263.8171,59.036,144.6433,-0.003478,-0.00465115,0.0,0 STARLINK-3572,1 51879U 22022AD  22111.16667824 -.00465115  00000-0 -34780-2 0  9993,2 51879  53.2151 263.8171 0001459  59.0360 144.6433 15.73320589  8869,6727.551,91.526,350.398,348.435,0.0
51879.0,STARLINK-3572,PAYLOAD,2022-04-21 14:00:01,15.73251928,0.0001375,53.2127,261.765,57.6238,347.2292,-0.00058504,-0.00082112,0.0,0 STARLINK-3572,1 51879U 22022AD  22111.58334491 -.00082112  00000-0 -58504-3 0  9993,2 51879  53.2127 261.7650 0001375  57.6238 347.2292 15.73251928  3708,6727.746999999999,91.53,350.537,348.68699999999984,0.0
51879.0,STARLINK-3572,PAYLOAD,2022-04-21 22:00:00,15.73206966,0.0001434,53.2125,260.1164,46.653,87.1903,0.00057202,0.00080456,0.0,0 STARLINK-3572,1 51879U 22022AD  22111.91667824  .00080456  00000-0  57202-3 0  9990,2 51879  53.2125 260.1164 0001434  46.6530  87.1903 15.73206966  3710,6727.875,91.533,350.705,348.776,0.0
51879.0,STARLINK-3572,PAYLOAD,2022-04-22 06:00:00,15.7320674,0.0001446,53.2131,258.4638,52.6031,170.2283,0.00050795,0.00071296,0.0,0 STARLINK-3572,1 51879U 22022AD  22112.25001157  .00071296  00000-0  50795-3 0  9991,2 51879  53.2131 258.4638 0001446  52.6031 170.2283 15.73206740  9035,6727.876,91.533,350.714,348.76800000000014,0.0
51879.0,STARLINK-3572,PAYLOAD,2022-04-22 14:00:01,15.7328388,0.000155,53.2128,256.8161,51.7762,259.9819,-0.00071008,-0.00099464,0.0,0 STARLINK-3572,1 51879U 22022AD  22112.58334491 -.00099464  00000-0 -71008-3 0  9996,2 51879  53.2128 256.8161 0001550  51.7762 259.9819 15.73283880  9086,6727.656,91.528,350.564,348.478,0.0
51879.0,STARLINK-3572,PAYLOAD,2022-04-23 14:00:01,15.73171919,0.0001516,53.2121,251.8677,45.6997,172.8055,0.000215,0.00029624,0.0,0 STARLINK-3572,1 51879U 22022AD  22113.58334491  .00029624  00000-0  21500-3 0  9998,2 51879  53.2121 251.8677 0001516  45.6997 172.8055 15.73171919  9242,6727.975,91.535,350.86,348.82,0.0
51879.0,STARLINK-3572,PAYLOAD,2022-04-24 14:00:01,15.73238377,0.0001726,53.2123,246.9186,39.5251,85.7702,-0.00038336,-0.00054168,0.0,0 STARLINK-3572,1 51879U 22022AD  22114.58334491 -.00054168  00000-0 -38336-3 0  9997,2 51879  53.2123 246.9186 0001726  39.5251  85.7702 15.73238377  3698,6727.786,91.531,350.81199999999984,348.49,0.0
51879.0,STARLINK-3572,PAYLOAD,2022-04-24 20:00:01,15.7320894,0.0001872,53.2119,245.6821,36.6631,65.3493,-0.00023327,-0.00033244,0.0,0 STARLINK-3572,1 51879U 22022AD  22114.83334491 -.00033244  00000-0 -23327-3 0  9991,2 51879  53.2119 245.6821 0001872  36.6631  65.3493 15.73208940  9439,6727.87,91.533,350.994,348.475,0.0
51879.0,STARLINK-3572,PAYLOAD,2022-04-25 14:00:01,15.73208579,0.000182,53.212,241.9698,36.3493,355.6852,7.6044e-06,4.47e-06,0.0,0 STARLINK-3572,1 51879U 22022AD  22115.58334491  .00000447  00000-0  76044-5 0  9997,2 51879  53.2120 241.9698 0001820  36.3493 355.6852 15.73208579  9553,6727.871,91.533,350.96,348.511,0.0
51879.0,STARLINK-3572,PAYLOAD,2022-04-25 22:00:00,15.73196725,0.0001814,53.2121,240.3202,28.4333,92.529,9.9829e-05,0.0001341,0.0,0 STARLINK-3572,1 51879U 22022AD  22115.91667824  .00013410  00000-0  99829-4 0  9992,2 51879  53.2121 240.3202 0001814  28.4333  92.5290 15.73196725  3709,6727.905,91.533,350.99,348.5490000000001,0.0
